NORAD_CAT_ID,OBJECT_NAME,OBJECT_TYPE,EPOCH,MEAN_MOTION,ECCENTRICITY,INCLINATION,RA_OF_ASC_NODE,ARG_OF_PERICENTER,MEAN_ANOMALY,BSTAR,MEAN_MOTION_DOT,MEAN_MOTION_DDOT,TLE_LINE0,TLE_LINE1,TLE_LINE2,SEMIMAJOR_AXIS,PERIOD,APOGEE,PERIGEE,DECAYED
54162.0,STARLINK-5273,PAYLOAD,2023-05-08 20:54:40,15.08848975,0.0001087,53.2172,344.1021,93.5647,266.5469,0.00022968,3.37e-05,0.0,0 STARLINK-5273,1 54162U 22141F   23128.87130657  .00003370  00000-0  22968-3 0  9994,2 54162  53.2172 344.1021 0001087  93.5647 266.5469 15.08848975 29346,6917.853,95.437,540.47,538.966,0.0
54162.0,STARLINK-5273,PAYLOAD,2023-05-09 20:45:27,15.08845424,0.0001047,53.2179,339.6421,88.4424,271.6688,0.00014922,2.088e-05,0.0,0 STARLINK-5273,1 54162U 22141F   23129.86490648  .00002088  00000-0  14922-3 0  9999,2 54162  53.2179 339.6421 0001047  88.4424 271.6688 15.08845424 29490,6917.864,95.437,540.453,539.005,0.0
54162.0,STARLINK-5273,PAYLOAD,2023-05-10 20:36:15,15.08845705,0.000111,53.2163,335.1846,83.7947,276.3171,3.7395e-05,3.07e-06,0.0,0 STARLINK-5273,1 54162U 22141F   23130.85850753  .00000307  00000-0  37395-4 0  9999,2 54162  53.2163 335.1846 0001110  83.7947 276.3171 15.08845705 29642,6917.863,95.437,540.496,538.96,0.0
54162.0,STARLINK-5273,PAYLOAD,2023-05-11 10:54:43,15.0883507,0.0001099,53.216,332.5096,95.6773,264.4344,-1.4005e-05,-5.11e-06,0.0,0 STARLINK-5273,1 54162U 22141F   23131.45467364 -.00000511  00000-0 -14005-4 0  9990,2 54162  53.2160 332.5096 0001099  95.6773 264.4344 15.08835070 29736,6917.895,95.438,540.521,539.0,0.0
54162.0,STARLINK-5273,PAYLOAD,2023-05-11 20:27:02,15.08837147,0.0001081,53.2169,330.7265,87.3086,272.803,0.00011248,1.503e-05,0.0,0 STARLINK-5273,1 54162U 22141F   23131.85211397  .00001503  00000-0  11248-3 0  9992,2 54162  53.2169 330.7265 0001081  87.3086 272.8030 15.08837147 29797,6917.889,95.438,540.502,539.006,0.0
54162.0,STARLINK-5273,PAYLOAD,2023-05-12 18:42:26,15.08827051,0.0001045,53.2174,326.5637,111.0034,249.1069,0.00026522,3.934e-05,0.0,0 STARLINK-5273,1 54162U 22141F   23132.77947912  .00003934  00000-0  26522-3 0  9994,2 54162  53.2174 326.5637 0001045 111.0034 249.1069 15.08827051 29935,6917.92,95.438,540.508,539.062,0.0
54162.0,STARLINK-5273,PAYLOAD,2023-05-13 05:50:08,15.08839311,0.0001108,53.2175,324.4813,96.4785,263.6334,8.8184e-05,1.116e-05,0.0,0 STARLINK-5273,1 54162U 22141F   23133.24315722  .00001116  00000-0  88184-4 0  9998,2 54162  53.2175 324.4813 0001108  96.4785 263.6334 15.08839311 30006,6917.882,95.438,540.514,538.981,0.0
54162.0,STARLINK-5273,PAYLOAD,2023-05-13 12:11:41,15.0882839,0.0001122,53.2172,323.291,93.1799,266.9322,0.00014914,2.086e-05,0.0,0 STARLINK-5273,1 54162U 22141F   23133.50812339  .00002086  00000-0  14914-3 0  9999,2 54162  53.2172 323.2910 0001122  93.1799 266.9322 15.08828390 30045,6917.916,95.438,540.557,539.005,0.0
54162.0,STARLINK-5273,PAYLOAD,2023-05-13 20:08:37,15.08840233,0.0001161,53.218,321.8019,91.069,269.0435,0.00010092,1.319e-05,0.0,0 STARLINK-5273,1 54162U 22141F   23133.83931724  .00001319  00000-0  10092-3 0  9996,2 54162  53.2180 321.8019 0001161  91.0690 269.0435 15.08840233 30092,6917.88,95.438,540.548,538.942,0.0
54162.0,STARLINK-5273,PAYLOAD,2023-05-14 05:40:55,15.08842659,0.0001183,53.2175,320.0161,81.3903,278.7223,-1.31e-05,-4.96e-06,0.0,0 STARLINK-5273,1 54162U 22141F   23134.23675766 -.00000496  00000-0 -13100-4 0  9993,2 54162  53.2175 320.0161 0001183  81.3903 278.7223 15.08842659 30151,6917.872,95.437,540.556,538.919,0.0
54162.0,STARLINK-5273,PAYLOAD,2023-05-14 19:59:24,15.08840355,0.0001148,53.2169,317.3422,80.3727,279.7395,5.9955e-05,6.66e-06,0.0,0 STARLINK-5273,1 54162U 22141F   23134.83291945  .00000666  00000-0  59955-4 0  9997,2 54162  53.2169 317.3422 0001148  80.3727 279.7395 15.08840355 30249,6917.879,95.438,540.538,538.95,0.0
54162.0,STARLINK-5273,PAYLOAD,2023-05-15 18:14:47,15.08843972,0.0001288,53.2169,313.1789,79.6782,280.4355,8.3375e-05,1.039e-05,0.0,0 STARLINK-5273,1 54162U 22141F   23135.76027612  .00001039  00000-0  83375-4 0  9996,2 54162  53.2169 313.1789 0001288  79.6782 280.4355 15.08843972 30384,6917.868,95.437,540.624,538.842,0.0
54162.0,STARLINK-5273,PAYLOAD,2023-05-15 21:25:33,15.08846801,0.0001171,53.2176,312.5817,91.8936,268.2191,8.6084e-05,1.083e-05,0.0,0 STARLINK-5273,1 54162U 22141F   23135.89275332  .00001083  00000-0  86084-4 0  9993,2 54162  53.2176 312.5817 0001171  91.8936 268.2191 15.08846801 30404,6917.86,95.437,540.535,538.915,0.0
54162.0,STARLINK-5273,PAYLOAD,2023-05-16 11:44:02,15.0883961,0.0001182,53.2166,309.9056,90.6453,269.4674,8.7875e-05,1.111e-05,0.0,0 STARLINK-5273,1 54162U 22141F   23136.48891715  .00001111  00000-0  87875-4 0  9999,2 54162  53.2166 309.9056 0001182  90.6453 269.4674 15.08839610 30499,6917.882,95.438,540.564,538.929,0.0
54162.0,STARLINK-5273,PAYLOAD,2023-05-16 18:05:34,15.08842643,0.0001191,53.2157,308.7171,86.2501,273.8627,0.00010523,1.387e-05,0.0,0 STARLINK-5273,1 54162U 22141F   23136.75387452  .00001387  00000-0  10523-3 0  9997,2 54162  53.2157 308.7171 0001191  86.2501 273.8627 15.08842643 30531,6917.872,95.437,540.561,538.913,0.0
54162.0,STARLINK-5273,PAYLOAD,2023-05-17 02:02:31,15.08832118,0.0001944,53.216,307.2327,54.5503,305.567,-5.2868e-05,-1.129e-05,0.0,0 STARLINK-5273,1 54162U 22141F   23137.08508562 -.00001129  00000-0 -52868-4 0  9996,2 54162  53.2160 307.2327 0001944  54.5503 305.5670 15.08832118 30580,6917.904,95.438,541.114,538.425,0.0
54162.0,STARLINK-5273,PAYLOAD,2023-05-17 17:56:22,15.08843062,9.86e-05,53.2174,304.2583,83.7033,276.4072,-3.6761e-05,-8.73e-06,0.0,0 STARLINK-5273,1 54162U 22141F   23137.74747806 -.00000873  00000-0 -36761-4 0  9994,2 54162  53.2174 304.2583 0000986  83.7033 276.4072 15.08843062 30686,6917.871,95.437,540.418,539.054,0.0
54162.0,STARLINK-5273,PAYLOAD,2023-05-17 19:31:45,15.08840848,0.0001175,53.2172,303.9599,91.4205,268.6922,6.6995e-06,-1.81e-06,0.0,0 STARLINK-5273,1 54162U 22141F   23137.81371814 -.00000181  00000-0  66995-5 0  9998,2 54162  53.2172 303.9599 0001175  91.4205 268.6922 15.08840848 30692,6917.878,95.438,540.556,538.93,0.0
54162.0,STARLINK-5273,PAYLOAD,2023-05-18 09:50:13,15.08834733,0.0001204,53.2174,301.2844,91.2408,268.8722,3.2725e-05,2.33e-06,0.0,0 STARLINK-5273,1 54162U 22141F   23138.40988288  .00000233  00000-0  32725-4 0  9993,2 54162  53.2174 301.2844 0001204  91.2408 268.8722 15.08834733 30780,6917.896,95.438,540.594,538.929,0.0
54162.0,STARLINK-5273,PAYLOAD,2023-05-18 19:22:32,15.08839318,0.000118,53.2173,299.5005,89.8827,270.23,2.4473e-05,1.02e-06,0.0,0 STARLINK-5273,1 54162U 22141F   23138.80732078  .00000102  00000-0  24473-4 0  9997,2 54162  53.2173 299.5005 0001180  89.8827 270.2300 15.08839318 30848,6917.882,95.438,540.564,538.931,0.0
54162.0,STARLINK-5273,PAYLOAD,2023-05-19 17:37:56,15.08836725,0.0001109,53.2173,295.3375,88.3948,271.7171,8.5126e-05,1.067e-05,0.0,0 STARLINK-5273,1 54162U 22141F   23139.73468431  .00001067  00000-0  85126-4 0  9992,2 54162  53.2173 295.3375 0001109  88.3948 271.7171 15.08836725 30987,6917.89,95.438,540.523,538.988,0.0
54162.0,STARLINK-5273,PAYLOAD,2023-05-20 17:28:42,15.08856441,0.0001192,53.2155,290.8768,78.7658,281.3468,0.00019109,2.756e-05,0.0,0 STARLINK-5273,1 54162U 22141F   23140.72827389  .00002756  00000-0  19109-3 0  9997,2 54162  53.2155 290.8768 0001192  78.7658 281.3468 15.08856441 31137,6917.83,95.437,540.52,538.871,0.0
54162.0,STARLINK-5273,PAYLOAD,2023-05-21 09:22:35,15.08832845,0.0001309,53.2159,287.9035,91.6027,268.5115,-7.7979e-05,-1.528e-05,0.0,0 STARLINK-5273,1 54162U 22141F   23141.39068689 -.00001528  00000-0 -77979-4 0  9999,2 54162  53.2159 287.9035 0001309  91.6027 268.5115 15.08832845 31238,6917.902,95.438,540.673,538.862,0.0
54162.0,STARLINK-5273,PAYLOAD,2023-05-21 12:33:21,15.08829431,0.0001132,53.2157,287.3083,96.9406,263.1715,-0.00010338,-1.932e-05,0.0,0 STARLINK-5273,1 54162U 22141F   23141.52316827 -.00001932  00000-0 -10338-3 0  9998,2 54162  53.2157 287.3083 0001132  96.9406 263.1715 15.08829431 31252,6917.913,95.438,540.561,538.995,0.0
54162.0,STARLINK-5273,PAYLOAD,2023-05-21 17:19:30,15.08836009,9.56e-05,53.2158,286.4162,98.3478,261.7622,2.7114e-05,1.44e-06,0.0,0 STARLINK-5273,1 54162U 22141F   23141.72188545  .00000144  00000-0  27114-4 0  9997,2 54162  53.2158 286.4162 0000956  98.3478 261.7622 15.08836009 31282,6917.893,95.438,540.419,539.096,0.0
54162.0,STARLINK-5273,PAYLOAD,2023-05-22 09:13:22,15.08843839,0.0001007,53.2155,283.4417,104.1134,255.997,0.00057992,8.955e-05,0.0,0 STARLINK-5273,1 54162U 22141F   23142.38428699  .00008955  00000-0  57992-3 0  9991,2 54162  53.2155 283.4417 0001007 104.1134 255.9970 15.08843839 31383,6917.869,95.437,540.43,539.037,0.0
54162.0,STARLINK-5273,PAYLOAD,2023-05-22 15:34:54,15.08848764,9.69e-05,53.2153,282.2526,101.8324,258.2777,0.00084491,0.00013188,0.0,0 STARLINK-5273,1 54162U 22141F   23142.64924697  .00013188  00000-0  84491-3 0  9997,2 54162  53.2153 282.2526 0000969 101.8324 258.2777 15.08848764 31428,6917.854,95.437,540.389,539.048,0.0
54162.0,STARLINK-5273,PAYLOAD,2023-05-23 15:25:42,15.08841033,0.0001246,53.2158,277.7921,107.8752,252.2376,0.00022996,3.374e-05,0.0,0 STARLINK-5273,1 54162U 22141F   23143.64284864  .00003374  00000-0  22996-3 0  9991,2 54162  53.2158 277.7921 0001246 107.8752 252.2376 15.08841033 31578,6917.877,95.437,540.604,538.88,0.0
54162.0,STARLINK-5273,PAYLOAD,2023-05-24 15:16:29,15.08844612,0.0001013,53.2164,273.3316,91.4781,268.6327,0.0001422,1.976e-05,0.0,0 STARLINK-5273,1 54162U 22141F   23144.63644852  .00001976  00000-0  14220-3 0  9995,2 54162  53.2164 273.3316 0001013  91.4781 268.6327 15.08844612 31727,6917.866,95.437,540.432,539.031,0.0
54162.0,STARLINK-5273,PAYLOAD,2023-05-26 03:50:21,15.08843519,8.97e-05,53.2152,266.4891,68.3819,291.7269,3.6201e-05,2.89e-06,0.0,0 STARLINK-5273,1 54162U 22141F   23146.15996791  .00000289  00000-0  36201-4 0  9996,2 54162  53.2152 266.4891 0000897  68.3819 291.7269 15.08843519 31951,6917.87,95.437,540.355,539.114,0.0
